NORAD_CAT_ID,OBJECT_NAME,OBJECT_TYPE,EPOCH,MEAN_MOTION,ECCENTRICITY,INCLINATION,RA_OF_ASC_NODE,ARG_OF_PERICENTER,MEAN_ANOMALY,BSTAR,MEAN_MOTION_DOT,MEAN_MOTION_DDOT,TLE_LINE0,TLE_LINE1,TLE_LINE2,SEMIMAJOR_AXIS,PERIOD,APOGEE,PERIGEE,DECAYED
51745.0,STARLINK-3449,PAYLOAD,2022-07-02 22:00:00,15.08855428,0.000172,53.2142,240.5224,52.0621,36.3483,0.00034449,5.201e-05,0.0,0 STARLINK-3449,1 51745U 22016AH  22183.91667824  .00005201  00000-0  34449-3 0  9997,2 51745  53.2142 240.5224 0001720  52.0621  36.3483 15.08855428  1303,6917.833000000001,95.437,540.888,538.508,0.0
51745.0,STARLINK-3449,PAYLOAD,2022-07-03 14:00:01,15.08857008,0.0001829,53.2142,237.531,45.9632,65.6917,-0.00093522,-0.00015148,0.0,0 STARLINK-3449,1 51745U 22016AH  22184.58334491 -.00015148  00000-0 -93522-3 0  9992,2 51745  53.2142 237.5310 0001829  45.9632  65.6917 15.08857008 21639,6917.828,95.436,540.9590000000002,538.428,0.0
51745.0,STARLINK-3449,PAYLOAD,2022-07-03 22:00:00,15.08820212,0.0001564999999999,53.2144,236.0327,47.6747,75.5965,-0.00067509,-0.0001101,0.0,0 STARLINK-3449,1 51745U 22016AH  22184.91667824 -.00011010  00000-0 -67509-3 0  9998,2 51745  53.2144 236.0327 0001565  47.6747  75.5965 15.08820212  1308,6917.941,95.439,540.889,538.7230000000002,0.0
51745.0,STARLINK-3449,PAYLOAD,2022-07-04 06:00:00,15.08833118,0.0001599,53.2147,234.5366,48.9726,85.8598,-0.0015046,-0.00024149,0.0,0 STARLINK-3449,1 51745U 22016AH  22185.25001157 -.00024149  00000-0 -15046-2 0  9992,2 51745  53.2147 234.5366 0001599  48.9726  85.8598 15.08833118 21739,6917.901,95.438,540.873,538.66,0.0
51745.0,STARLINK-3449,PAYLOAD,2022-07-04 14:00:01,15.08797954,0.0001744,53.2144,233.0415,42.3693,104.0476,0.0029778,0.00047368,0.0,0 STARLINK-3449,1 51745U 22016AH  22185.58334491  .00047368  00000-0  29778-2 0  9991,2 51745  53.2144 233.0415 0001744  42.3693 104.0476 15.08797954  1305,6918.009,95.44,541.08,538.6669999999998,0.0
51745.0,STARLINK-3449,PAYLOAD,2022-07-04 22:00:00,15.08813565,0.0001549,53.2145,231.5433,47.4056,110.5838,0.0011395,0.00017881,0.0,0 STARLINK-3449,1 51745U 22016AH  22185.91667824  .00017881  00000-0  11395-2 0  9990,2 51745  53.2145 231.5433 0001549  47.4056 110.5838 15.08813565 21832,6917.9609999999975,95.439,540.898,538.755,0.0
51745.0,STARLINK-3449,PAYLOAD,2022-07-05 14:00:01,15.0880921,0.000174,53.2143,228.5522,42.8668,138.2831,0.0027596,0.00043868,0.0,0 STARLINK-3449,1 51745U 22016AH  22186.58334491  .00043868  00000-0  27596-2 0  9999,2 51745  53.2143 228.5522 0001740  42.8668 138.2831 15.08809210  1308,6917.975,95.44,541.043,538.636,0.0
51745.0,STARLINK-3449,PAYLOAD,2022-07-05 22:00:00,15.08816497,0.0001545,53.2144,227.054,48.2891,144.4431,0.001501,0.00023666,0.0,0 STARLINK-3449,1 51745U 22016AH  22186.91667824  .00023666  00000-0  15010-2 0  9997,2 51745  53.2144 227.0540 0001545  48.2891 144.4431 15.08816497 21980,6917.9519999999975,95.439,540.886,538.748,0.0
51745.0,STARLINK-3449,PAYLOAD,2022-07-06 14:00:01,15.08815652,0.0001747,53.2141,224.063,43.8157,172.0839,0.0022346,0.00035431,0.0,0 STARLINK-3449,1 51745U 22016AH  22187.58334491  .00035431  00000-0  22346-2 0  9995,2 51745  53.2141 224.0630 0001747  43.8157 172.0839 15.08815652  1309,6917.955,95.439,541.028,538.611,0.0
51745.0,STARLINK-3449,PAYLOAD,2022-07-06 16:00:00,15.08842434,0.0001712,53.2139,223.6884,44.182,264.6053,-0.001079,-0.00017421,0.0,0 STARLINK-3449,1 51745U 22016AH  22187.66667824 -.00017421  00000-0 -10790-2 0  9994,2 51745  53.2139 223.6884 0001712  44.1820 264.6053 15.08842434 22098,6917.873000000001,95.437,540.922,538.554,0.0
51745.0,STARLINK-3449,PAYLOAD,2022-07-06 19:24:23,15.08826266,0.0001716,53.2155,223.0509,48.8566,311.2574,6.2754e-05,7.1e-06,0.0,0 STARLINK-3449,1 51745U 22016AH  22187.80860325  .00000710  00000-0  62754-4 0  9991,2 51745  53.2155 223.0509 0001716  48.8566 311.2574 15.08826266 20984,6917.922,95.438,540.974,538.6,0.0
51745.0,STARLINK-3449,PAYLOAD,2022-07-07 11:18:14,15.08831952,0.0001728,53.2153,220.0769,48.5313,311.5828,4.2976e-05,3.96e-06,0.0,0 STARLINK-3449,1 51745U 22016AH  22188.47100462  .00000396  00000-0  42976-4 0  9998,2 51745  53.2153 220.0769 0001728  48.5313 311.5828 15.08831952 22218,6917.905,95.438,540.965,538.575,0.0
51745.0,STARLINK-3449,PAYLOAD,2022-07-07 22:00:00,15.0881706,0.0001628,53.2138,218.0756,50.4364,211.8216,0.002236,0.00035455,0.0,0 STARLINK-3449,1 51745U 22016AH  22188.91667824  .00035455  00000-0  22360-2 0  9994,2 51745  53.2138 218.0756 0001628  50.4364 211.8216 15.08817060  1305,6917.951,95.439,540.942,538.689,0.0
51745.0,STARLINK-3449,PAYLOAD,2022-07-08 11:09:01,15.08840647,0.000179,53.2151,215.616,46.9018,313.2124,7.248399999999999e-05,8.66e-06,0.0,0 STARLINK-3449,1 51745U 22016AH  22189.46460046  .00000866  00000-0  72484-4 0  9994,2 51745  53.2151 215.6160 0001790  46.9018 313.2124 15.08840647 22369,6917.878000000002,95.438,540.982,538.505,0.0
51745.0,STARLINK-3449,PAYLOAD,2022-07-08 22:00:01,15.08829889,0.0001717,53.2138,213.586,50.1487,246.9803,0.0028918,0.00046023,0.0,0 STARLINK-3449,1 51745U 22016AH  22189.91668981  .00046023  00000-0  28918-2 0  9998,2 51745  53.2138 213.5860 0001717  50.1487 246.9803 15.08829889  1306,6917.911,95.438,540.964,538.5880000000002,0.0
51745.0,STARLINK-3449,PAYLOAD,2022-07-09 14:00:01,15.08844676,0.0001882,53.2136,210.5948,42.6397,277.6367,-0.0010824,-0.00017476,0.0,0 STARLINK-3449,1 51745U 22016AH  22190.58334491 -.00017476  00000-0 -10824-2 0  9998,2 51745  53.2136 210.5948 0001882  42.6397 277.6367 15.08844676  1304,6917.866,95.437,541.033,538.429,0.0
51745.0,STARLINK-3449,PAYLOAD,2022-07-09 16:00:00,15.08850819,0.0001848,53.2137,210.2202,43.3517,9.8224,-0.0024107,-0.00038462,0.0,0 STARLINK-3449,1 51745U 22016AH  22190.66667824 -.00038462  00000-0 -24107-2 0  9993,2 51745  53.2137 210.2202 0001848  43.3517   9.8224 15.08850819 22552,6917.847,95.437,540.991,538.434,0.0
51745.0,STARLINK-3449,PAYLOAD,2022-07-09 20:00:01,15.08821385,0.0001737,53.214,209.471,46.0764,192.9011,0.00072718,0.00011298,0.0,0 STARLINK-3449,1 51745U 22016AH  22190.83334491  .00011298  00000-0  72718-3 0  9991,2 51745  53.2140 209.4710 0001737  46.0764 192.9011 15.08821385  1305,6917.937,95.439,541.004,538.601,0.0
51745.0,STARLINK-3449,PAYLOAD,2022-07-10 06:00:00,15.08847262,0.0001877,53.2139,207.6015,46.379,297.0729,-0.001621,-0.00025999,0.0,0 STARLINK-3449,1 51745U 22016AH  22191.25001157 -.00025999  00000-0 -16210-2 0  9997,2 51745  53.2139 207.6015 0001877  46.3790 297.0729 15.08847262 22632,6917.858,95.437,541.0219999999998,538.425,0.0
51745.0,STARLINK-3449,PAYLOAD,2022-07-10 14:00:01,15.08837943,0.0001949,53.2136,206.1054,42.5463,312.4938,6.2418e-05,7.05e-06,0.0,0 STARLINK-3449,1 51745U 22016AH  22191.58334491  .00000705  00000-0  62418-4 0  9992,2 51745  53.2136 206.1054 0001949  42.5463 312.4938 15.08837943  1301,6917.887,95.438,541.1,538.403,0.0
51745.0,STARLINK-3449,PAYLOAD,2022-07-10 22:00:00,15.08814008,0.0001789,53.2139,204.6073,48.9459,317.6964,0.0030053,0.00047832,0.0,0 STARLINK-3449,1 51745U 22016AH  22191.91667824  .00047832  00000-0  30053-2 0  9998,2 51745  53.2139 204.6073 0001789  48.9459 317.6964 15.08814008 22738,6917.96,95.439,541.062,538.587,0.0
51745.0,STARLINK-3449,PAYLOAD,2022-07-11 14:00:01,15.08848908,0.0002005,53.2135,201.6159,43.738,346.0836,-0.00043783,-7.251e-05,0.0,0 STARLINK-3449,1 51745U 22016AH  22192.58334491 -.00007251  00000-0 -43783-3 0  9991,2 51745  53.2135 201.6159 0002005  43.7380 346.0836 15.08848908  1304,6917.853,95.437,541.105,538.331,0.0
51745.0,STARLINK-3449,PAYLOAD,2022-07-11 22:00:00,15.08822185,0.0001829,53.2138,200.1179,50.284,351.1488,0.0029267,0.00046576,0.0,0 STARLINK-3449,1 51745U 22016AH  22192.91667824  .00046576  00000-0  29267-2 0  9998,2 51745  53.2138 200.1179 0001829  50.2840 351.1488 15.08822185  1309,6917.935,95.439,541.065,538.535,0.0
51745.0,STARLINK-3449,PAYLOAD,2022-07-12 14:00:01,15.08860703,0.0002015,53.2134,197.1264,45.2938,19.339,-0.00074386,-0.00012114,0.0,0 STARLINK-3449,1 51745U 22016AH  22193.58334491 -.00012114  00000-0 -74386-3 0  9999,2 51745  53.2134 197.1264 0002015  45.2938  19.3390 15.08860703 22996,6917.816999999999,95.436,541.076,538.288,0.0
51745.0,STARLINK-3449,PAYLOAD,2022-07-12 22:00:00,15.08844829,0.0001808,53.2136,195.6283,51.2014,25.0519,0.00093344,0.00014601,0.0,0 STARLINK-3449,1 51745U 22016AH  22193.91667824  .00014601  00000-0  93344-3 0  9991,2 51745  53.2136 195.6283 0001808  51.2014  25.0519 15.08844829  1303,6917.866,95.437,540.981,538.48,0.0
51745.0,STARLINK-3449,PAYLOAD,2022-07-13 14:00:01,15.08843442,0.0001936,53.2132,192.6368,45.1526,54.295,-0.0011352,-0.00018311,0.0,0 STARLINK-3449,1 51745U 22016AH  22194.58334491 -.00018311  00000-0 -11352-2 0  9998,2 51745  53.2132 192.6368 0001936  45.1526  54.2950 15.08843442  1305,6917.87,95.437,541.0740000000002,538.396,0.0
51745.0,STARLINK-3449,PAYLOAD,2022-07-13 16:00:00,15.08849093,0.0001868,53.2133,192.2622,47.4128,144.9313,-0.002114,-0.00033784,0.0,0 STARLINK-3449,1 51745U 22016AH  22194.66667824 -.00033784  00000-0 -21140-2 0  9993,2 51745  53.2133 192.2622 0001868  47.4128 144.9313 15.08849093 23157,6917.853,95.437,541.01,538.425,0.0
51745.0,STARLINK-3449,PAYLOAD,2022-07-13 22:00:00,15.08817985,0.0001781,53.2133,191.139,51.9347,59.1091,0.0023971,0.00038045,0.0,0 STARLINK-3449,1 51745U 22016AH  22194.91667824  .00038045  00000-0  23971-2 0  9998,2 51745  53.2133 191.1390 0001781  51.9347  59.1091 15.08817985  1302,6917.948,95.439,541.045,538.581,0.0
51745.0,STARLINK-3449,PAYLOAD,2022-07-14 08:00:01,15.0882928,0.0001996,53.214,189.2704,47.5562,167.9771,0.00089848,0.00014036,0.0,0 STARLINK-3449,1 51745U 22016AH  22195.33334491  .00014036  00000-0  89848-3 0  9996,2 51745  53.2140 189.2704 0001996  47.5562 167.9771 15.08829280 23257,6917.913000000001,95.438,541.159,538.3969999999998,0.0
